{
    "links": {
        "self": "http://www.neowsapp.com/rest/v1/neo/3714182?api_key=iIulBulltgU6a56xZRHN4H3l9WmuAYTsLGpBGhQ2"
    },
    "id": "3714182",
    "neo_reference_id": "3714182",
    "name": "(2015 FC117)",
    "designation": "2015 FC117",
    "nasa_jpl_url": "http://ssd.jpl.nasa.gov/sbdb.cgi?sstr=3714182",
    "absolute_magnitude_h": 25.5,
    "estimated_diameter": {
        "kilometers": {
            "estimated_diameter_min": 0.0211132445,
            "estimated_diameter_max": 0.0472106499
        },
        "meters": {
            "estimated_diameter_min": 21.113244479,
            "estimated_diameter_max": 47.2106498806
        },
        "miles": {
            "estimated_diameter_min": 0.0131191578,
            "estimated_diameter_max": 0.0293353287
        },
        "feet": {
            "estimated_diameter_min": 69.2691770164,
            "estimated_diameter_max": 154.8905885541
        }
    },
    "is_potentially_hazardous_asteroid": false,
    "close_approach_data": [
        {
            "close_approach_date": "2014-11-06",
            "close_approach_date_full": "2014-Nov-06 12:34",
            "epoch_date_close_approach": 1415277240000,
            "relative_velocity": {
                "kilometers_per_second": "12.2206695229",
                "kilometers_per_hour": "43994.4102824058",
                "miles_per_hour": "27336.4156557538"
            },
            "miss_distance": {
                "astronomical": "0.4670555139",
                "lunar": "181.6845949071",
                "kilometers": "69870510.051195393",
                "miles": "43415521.7413187034"
            },
            "orbiting_body": "Earth"
        },
        {
            "close_approach_date": "2015-03-22",
            "close_approach_date_full": "2015-Mar-22 06:45",
            "epoch_date_close_approach": 1427006700000,
            "relative_velocity": {
                "kilometers_per_second": "15.3319200326",
                "kilometers_per_hour": "55194.9121172761",
                "miles_per_hour": "34295.9719208708"
            },
            "miss_distance": {
                "astronomical": "0.043756475",
                "lunar": "17.021268775",
                "kilometers": "6545875.45870825",
                "miles": "4067418.40134385"
            },
            "orbiting_body": "Earth"
        }
    ],
    "orbital_data": {
        "orbit_id": "7",
        "orbit_determination_date": "2017-04-06 08:34:49",
        "first_observation_date": "2015-03-24",
        "last_observation_date": "2015-03-29",
        "data_arc_in_days": 5,
        "observations_used": 22,
        "orbit_uncertainty": "8",
        "minimum_orbit_intersection": ".0419982",
        "jupiter_tisserand_invariant": "4.343",
        "epoch_osculation": "2457107.5",
        "eccentricity": ".3735731085892445",
        "semi_major_axis": "1.513153389116203",
        "inclination": "25.29980634060369",
        "ascending_node_longitude": "183.843380711742",
        "orbital_period": "679.865274433825",
        "perihelion_distance": ".9478799737717125",
        "perihelion_argument": "311.4394552199445",
        "aphelion_distance": "2.078426804460693",
        "perihelion_time": "2457064.523930435683",
        "mean_anomaly": "22.75654548768991",
        "mean_motion": ".5295166756381242",
        "equinox": "J2000",
        "orbit_class": {
            "orbit_class_type": "APO",
            "orbit_class_description": "Near-Earth asteroid orbits which cross the Earth’s orbit similar to that of 1862 Apollo",
            "orbit_class_range": "a (semi-major axis) > 1.0 AU; q (perihelion) < 1.017 AU"
        }
    },
    "is_sentry_object": false
}